JILIN-1 04              
1 43022U 17074A   26162.57165636  .00012878  00000+0  30097-3 0  9993
2 43022  97.4849 272.0352 0003673 197.2639 162.8483 15.42301844473403
JILIN-1 05              
1 43023U 17074B   26162.57593900  .00007994  00000+0  24707-3 0  9997
2 43023  97.4857 268.6547 0003940 238.0038 122.0822 15.33788281473144
JILIN-1 06              
1 43024U 17074C   26162.61214038  .00005114  00000+0  15974-3 0  9993
2 43024  97.4784 265.7079 0005374 255.2134 104.8513 15.33631965472985
YAOGAN-30 03A           
1 43028U 17075A   26162.56761166  .00003053  00000+0  22559-3 0  9998
2 43028  34.9954 304.7925 0002609 265.1658  94.8752 15.02797532466409
YAOGAN-30 03B           
1 43029U 17075B   26162.55760019  .00002427  00000+0  18046-3 0  9994
2 43029  34.9949 304.5472 0003082 205.3005 154.7553 15.02670341466512
YAOGAN-30 03C           
1 43030U 17075C   26162.66914905  .00002504  00000+0  18628-3 0  9995
2 43030  34.9957 303.8332 0002447 345.9004  14.1636 15.02636871466593
COSMOS 2524             
1 43032U 17076A   26162.59009262  .00000096  00000+0  12170-3 0  9991
2 43032  67.1454 206.1108 0005420 225.3778 134.6865 13.97427508434824
LKW-1                   
1 43034U 17077A   26162.64853176  .00004900  00000+0  20635-3 0  9994
2 43034  97.0992 197.1770 0002081 102.4938 257.6533 15.23784504473859
ALCOMSAT 1              
1 43039U 17078A   26162.33305537 -.00000169  00000+0  00000+0 0  9993
2 43039   0.0412  75.5352 0002229   0.4582 278.8010  1.00271918 31233
GSAT0215 (GALILEO 19)   
1 43055U 17079A   26160.97660892  .00000049  00000+0  00000+0 0  9994
2 43055  55.0750 221.7051 0003311 266.3689  93.6775  1.70474602 52866
GSAT0216 (GALILEO 20)   
1 43056U 17079B   26161.26776505  .00000050  00000+0  00000+0 0  9999
2 43056  55.0753 221.6973 0003701 276.7573  83.2861  1.70474756 52885
GSAT0217 (GALILEO 21)   
1 43057U 17079C   26160.31538817  .00000046  00000+0  00000+0 0  9992
2 43057  55.0739 221.7216 0003894 284.8595  75.1799  1.70474233 52855
GSAT0218 (GALILEO 22)   
1 43058U 17079D   26162.29521693  .00000055  00000+0  00000+0 0  9996
2 43058  55.0734 221.6644 0004380 272.9557  87.0844  1.70474706 52917
GCOM-C (SHIKISAI)       
1 43065U 17082A   26162.11904001  .00000093  00000+0  56010-4 0  9996
2 43065  98.6275 235.8419 0001226  95.7758 264.3562 14.27290354441072
IRIDIUM 135             
1 43070U 17083A   26162.50031459  .00000025  00000+0  18238-5 0  9990
2 43070  86.3962 324.3936 0002166  91.4209 268.7235 14.34217679443334
IRIDIUM 138             
1 43071U 17083B   26162.52568528  .00000112  00000+0  33064-4 0  9995
2 43071  86.3977 324.0777 0002383  87.7808 272.3661 14.34218167443321
IRIDIUM 116             
1 43072U 17083C   26162.49397181  .00000045  00000+0  90012-5 0  9999
2 43072  86.3959 324.3822 0001883  95.3681 264.7730 14.34217568443353
IRIDIUM 130             
1 43073U 17083D   26162.46225793 -.00000093  00000+0 -40443-4 0  9993
2 43073  86.3965 324.6703 0001837  89.0856 271.0550 14.34217257443294
IRIDIUM 151             
1 43074U 17083E   26162.50665713  .00000036  00000+0  56628-5 0  9997
2 43074  86.3962 324.4347 0002127  92.5204 267.6235 14.34217635443328
IRIDIUM 134             
1 43075U 17083F   26162.54471247  .00000006  00000+0 -50320-5 0  9990
2 43075  86.3959 324.4266 0001971  89.5730 270.5692 14.34217577443292
IRIDIUM 137             
1 43076U 17083G   26162.48762934  .00000042  00000+0  78383-5 0  9998
2 43076  86.3964 324.5431 0002083 103.3994 256.7434 14.34217573443359
IRIDIUM 141             
1 43077U 17083H   26162.48128669  .00000067  00000+0  16760-4 0  9997
2 43077  86.3959 324.3768 0002209  90.7535 269.3914 14.34217947443353
IRIDIUM 153             
1 43078U 17083J   26162.64277126  .00000017  00000+0 -82170-6 0  9995
2 43078  86.3955 292.7895 0002180  90.4152 269.7293 14.34217586444487
IRIDIUM 131             
1 43079U 17083K   26162.53837027  .00000000  00000+0 -70075-5 0  9998
2 43079  86.3963 324.5387 0002082  91.7581 268.3853 14.34217340443291
LKW-2                   
1 43080U 17084A   26162.65257616  .00008068  00000+0  31380-3 0  9999
2 43080  97.1198 202.7075 0000386 207.6641 152.4577 15.26269722470844
YAOGAN-30 04A           
1 43081U 17085A   26162.10677191  .00001821  00000+0  13594-3 0  9992
2 43081  34.9943 187.1141 0004155 100.4550 259.6627 15.02666044461803
YAOGAN-30 04B           
1 43082U 17085B   26162.52809027  .00001855  00000+0  13840-3 0  9995
2 43082  34.9933 184.6400 0005215 290.5484  69.4665 15.02664675461849
YAOGAN-30 04C           
1 43083U 17085C   26162.48500124  .00001774  00000+0  13268-3 0  9991
2 43083  34.9936 185.3256 0003970  87.9279 272.1884 15.02620922461894
SUPERVIEW-1 03          
1 43099U 18002A   26162.57466703  .00017140  00000+0  42810-3 0  9991
2 43099  97.3136 247.4214 0046849 199.6517 160.2925 15.39066722467507
BEIDOU-3 M7             
1 43107U 18003A   26161.90699027 -.00000066  00000+0  00000+0 0  9996
2 43107  54.3345 302.5346 0004918  92.1737 267.8691  1.86228295 57234
